#dP2023 12 17  0  0  0.00000000      96 __u+U IGS20 EXT  IAC
## 2293      0.00000000   900.00000000 60295 0.0000000000000
+  118   C06C07C08C09C10C11C12C13C14C16C19C20C21C22C23C24C25
+        C26C27C28C29C30C32C33C34C35C36C37C38C39C40C41C42C43
+        C44C45C46E02E03E04E05E07E08E09E10E11E12E13E15E18E19
+        E21E24E25E26E27E30E31E33E34E36G01G02G03G04G05G06G07
+        G08G09G10G11G12G13G14G15G16G17G18G19G20G21G22G23G24
+        G25G26G27G28G29G30G31G32J02J03J04R01R02R03R04R05R07
+        R08R09R11R12R13R14R15R16R17R18R19R20R21R22R24R26  0
++         8 12 11  9  9 10  9 11 10  9  8  8  8  8 10  8  9
++         8  8  9  8  6  9  8  9  9  7  8 11  9  7  9  9  8
++         8  8  7  8  9  7  7  7  8  7  7  7  7  8  8  8  9
++         7  7  7  7  8  7  7  7  7  6  7  7  8  7  8  7  7
++         8  6  8  8  7  7  6  7  7  7  7  6  7  7  6  9  7
++         7  0  8  7  8  7  7  7  8  8  8  9  9  8  8  9  7
++         8  8  8  9  8  8  7  8  8  8  8  9  8  7  9  0  0
%c M  cc GPS ccc cccc cccc cccc cccc ccccc ccccc ccccc ccccc
%c cc cc ccc ccc cccc cccc cccc cccc ccccc ccccc ccccc ccccc
%f  0.0000000  0.000000000  0.00000000000  0.000000000000000
%f  0.0000000  0.000000000  0.00000000000  0.000000000000000
%i    0    0    0    0      0      0      0      0         0
%i    0    0    0    0      0      0      0      0         0
/* IAC                                ULTRA-RAPID PREDICTION
/* S/V CLOCKS ARE ALIGNED TO GNSS TIME                      
/* G:C1WC2W R:C1PC2P E:C1XC5X C:C2IC6I J:C1CC2S             
/* PCV:IGS20_2290 OL/AL:FES2004  NONE     YN ORB:CoN CLK:CoN
*  2023 12 17 20 15  0.00000000
PC06 -19501.303631  32659.908933 -18461.629569    213.411888
PC07  -3519.078226  38378.559825 -16822.435841   -490.609480
PC08  -3631.019142  20249.588915  36821.894707    174.160442
PC09 -10276.228088  30992.455078 -26581.690264   -230.723370
PC10   2903.028311  40305.905644 -10644.816050    -57.290513
PC11   3967.102259 -22980.860926 -15259.743850    311.453737
PC12  17022.799128 -22018.360150   2119.378220    822.884930
PC13   2496.445288  23123.913300  35374.274518    396.878905
PC14  -7019.157585 -25877.621150  -7815.968265   -227.432530
PC16 -21175.683730  32349.778879 -16974.823986   -231.540020
PC19  13264.653664  24504.139947  -1362.259146   -950.826667
PC20    890.937099  23802.102682  14529.669751     19.839956
PC21  13165.124619  -8577.595744 -23051.260439   -967.160127
PC22  18722.398515  11129.726510 -17441.763215   -182.802406
PC23 -26441.628446  -6221.887614   6368.125274   -802.460294
PC24   8570.780372 -15224.061703  21744.706514    702.079357
PC25 -13668.195852 -14546.059966  19478.427659    280.413324
PC26  24283.994124  -7441.688423  11581.586905   -221.631492
PC27 -19881.996781  16745.511982 -10180.188225    243.634739
PC28 -18259.706125    716.058100 -21081.186751    184.380187
PC29   5396.026570  18367.130909  20304.761054    215.873549
PC30 -10456.426678  25135.199855   6183.042991    -10.646439
PC32 -13192.131741   8553.787930  23066.741949   -543.701836
PC33 -13386.663959 -24458.075716   1281.230249   -941.809705
PC34   9342.795162 -25168.091167  -7585.353719    327.090776
PC35  18279.133805  -1356.555974  21024.986644    478.434148
PC36  12546.789079  15072.429482 -19845.196810    -89.029328
PC37 -24736.552551   6541.680790 -11101.082647   -928.668257
PC38 -12726.867317  19584.063277  35134.390277    124.686333
PC39 -23260.338200  33168.947058 -12026.479651     -6.159774
PC40  -7948.030285  35854.868493 -20475.783574    -48.256070
PC41 -18825.399674 -11796.749728  16940.557003   -873.995859
PC42    260.548144 -23107.732978 -15617.269323   -479.434300
PC43  -4731.608687 -19057.539095 -19825.275820     52.708542
PC44  19299.986361 -17309.451829  10278.137348    325.871279
PC45  26620.422608   5958.524490  -5962.822310    -55.757951
PC46  -7312.943305  15369.176895 -22119.577166   -108.301470
PE02  19033.790592  -4770.863725  22161.007127     87.450450
PE03  15525.497216 -16039.879815 -19449.518242    -80.780543
PE04  -5688.193642  28850.184801   3415.784696   -282.379860
PE05  16244.409387   5958.496033 -24019.199096   4701.459527
PE07  -7208.274158 -24921.608561  14254.788036    -93.560291
PE08   6036.888626 -28701.144755  -4021.700842   -193.729292
PE09   7068.425747  24981.304950 -14215.384017   -266.523723
PE10  -1893.697431  17510.038920  23789.990234   -587.111941
PE11   9774.747985  13144.809014  24651.200591   3268.590096
PE12 -12033.731666  18870.024507  19384.152866   -823.109394
PE13  -9014.883073 -13437.738664 -24775.249684    -19.702248
PE15  12555.486844 -18818.869055 -19074.043580    -75.231536
PE18  -6000.138568 -29026.180960 -13256.480070    106.033613
PE19 -16094.389339  13582.937479  20804.862378   -995.450438
PE21 -25751.824252 -11300.883540  -9226.806703   -569.342950
PE24  17345.644963  21784.477544 -10096.642921   -491.373637
PE25  25751.624553  11604.812718   8873.163529     -1.827513
PE26 -25327.499682    107.175169 -15304.808036    312.573228
PE27 -17768.351547 -21592.191988   9681.285754   -226.610799
PE30    994.386387 -18922.666418  22721.858632   -749.986639
PE31   -574.501094  19044.177359 -22652.933391    -11.910053
PE33 -26635.488524  12787.494136   1732.150316      4.376942
PE34  26426.907140 -13147.742300  -2292.992374    -83.903525
PE36  24959.328189    303.451023  15915.179570   -159.076260
PG01   2479.299849 -16104.565704 -21250.324058    164.129554
PG02   9231.581176 -17989.107487 -16605.903473   -514.144187
PG03  -5324.081646 -18927.898213 -18050.653612     61.856360
PG04    777.418444 -26117.653536   4355.335310    242.131105
PG05  -7126.419442  13188.291408  21746.486506   -154.498080
PG06 -25066.534956   5789.215619  -6750.831460    474.899069
PG07 -14388.206757  -9836.183600  20642.740698    -14.401505
PG08   5175.243920 -25425.111150   4420.686902   -157.475066
PG09  -8198.795339 -20815.414993  14185.160316     29.882607
PG10  23187.269616   9674.781434  -8916.125006    -65.701391
PG11 -23292.749105  11990.239834   4228.277199   -504.717978
PG12   3279.159249  19364.286370 -18197.234922   -458.465924
PG13 -13268.380662  19567.379329  11680.831708    606.656642
PG14 -22810.701782 -12502.797349  -5795.669896    273.599550
PG15  -2102.751795  25955.695578   4113.027770    107.940756
PG16  13914.467322  -7324.685170  21145.232103   -402.255096
PG17 -13312.772862  -7814.490410 -21161.294139    721.828986
PG18  15340.098896   8381.185357  20065.822203   -508.863531
PG19 -15537.622829   1785.929047 -21609.390713    413.852968
PG20 -18511.514477   5321.960081  18265.281253    396.154805
PG21  12312.588448 -17928.347544 -14056.345239    141.246081
PG22 -21762.097856  -7773.630700 -12392.071864     64.299240
PG23  20528.462387  16742.664378   3050.935455    117.922724
PG24  -8088.519427  18875.385266 -17020.103032   -395.433602
PG25  15007.085628  19704.889817 -10283.654068    481.865978
PG26  20791.089087  -1437.660800  16527.503052    208.414298
PG27  12623.580598 -16961.350960  15544.091420    -84.196118
PG28  24440.303060  -4367.570664  -9451.206564    -72.758831
PG29   5487.949071  21868.644170  13913.637500   -609.682115
PG30 -22308.821835  -2083.305945  14585.162520   -456.302901
PG31  25054.606097  -9428.146675  -1143.827451   -226.676924
PG32  14816.416421   3441.214661 -21594.225024   -597.233647
PJ02 -23743.100992  17619.518391 -25420.814281     -0.615222
PJ03 -28087.184610  31437.274317   8401.274572    -12.383843
PJ04 -25609.829233  27385.780560  25166.323489     74.434991
PR01  -8310.594457 -24085.344217   1291.026770     75.961851
PR02 -12323.668515 -13996.510199  17407.775150    -18.739393
PR03 -10037.893709   4353.148670  23088.076987     94.717943
PR04  -2246.228745  19698.446834  16089.104089    219.395171
PR05   6614.796723  24650.379690    391.985451    127.551467
PR07   9752.724873  -5129.446242 -22964.451850     75.171608
PR08   2028.157118 -19853.368658 -15805.410424    -70.130829
PR09  23676.420971   7763.339840  -5254.114643    162.895116
PR11  10133.523523  -8308.078417  21887.798984   -218.593010
PR12 -10589.551286 -12272.760341  19707.461087     38.179789
PR13 -22694.118169  -8889.513856   7494.284614    -38.798662
PR14 -22646.204680    569.647348 -11735.481191     29.391351
PR15  -8786.936861   8878.890834 -22226.897165     87.490161
PR16  10386.311681  12081.430616 -19906.374074     25.240728
PR17 -19274.010184  12777.844773 -10705.805954     47.968981
PR18 -15595.284632  19372.981684   5806.112074    120.976400
PR19  -5648.928873  16675.273986  18463.211325   -255.069916
PR20  11828.776093   2595.621841  22459.297107   -101.721685
PR21  19410.816748 -13027.268235  10245.991548    -58.154546
PR22  15547.755094 -19067.702374  -6679.907731    102.347900
PR24 -12649.857128  -1910.088803 -22040.618913    -32.731595
PR26      0.000000      0.000000      0.000000    -35.680903
EOF
